[{"OBJECT_NAME":"STARLINK-34476","OBJECT_ID":"2025-126W","EPOCH":"2026-03-09T07:02:54.976704","MEAN_MOTION":14.98335488,"ECCENTRICITY":0.00029515,"INCLINATION":70.0025,"RA_OF_ASC_NODE":35.4114,"ARG_OF_PERICENTER":270.6697,"MEAN_ANOMALY":89.4123,"EPHEMERIS_TYPE":0,"CLASSIFICATION_TYPE":"U","NORAD_CAT_ID":64364,"ELEMENT_SET_NO":999,"REV_AT_EPOCH":4062,"BSTAR":0.00054138655,"MEAN_MOTION_DOT":6.374e-5,"MEAN_MOTION_DDOT":0},{"OBJECT_NAME":"METHANESAT","OBJECT_ID":"2024-043D","EPOCH":"2026-03-09T22:12:33.121440","MEAN_MOTION":14.97588653,"ECCENTRICITY":0.00100526,"INCLINATION":97.8288,"RA_OF_ASC_NODE":199.6058,"ARG_OF_PERICENTER":350.2517,"MEAN_ANOMALY":9.8508,"EPHEMERIS_TYPE":0,"CLASSIFICATION_TYPE":"U","NORAD_CAT_ID":59101,"ELEMENT_SET_NO":999,"REV_AT_EPOCH":10979,"BSTAR":0.00032562202,"MEAN_MOTION_DOT":3.748e-5,"MEAN_MOTION_DDOT":0}]
